{
 "generated_at": "2026-06-28T08:21:54Z",
 "sources": [
  {
   "name": "CelesTrak",
   "url": "https://celestrak.org/NORAD/elements/",
   "license": "frei verfügbar; Attribution. Ursprünglich USSPACECOM/Space-Track."
  },
  {
   "name": "GCAT (J. McDowell, planet4589.org)",
   "url": "https://planet4589.org/space/gcat/",
   "license": "CC-BY 4.0"
  }
 ],
 "satellites": [
  {
   "norad": 29228,
   "name": "RESURS-DK 1",
   "intl": "2006-021A",
   "group": "resource",
   "gcat": {
    "class": null,
    "category": null,
    "owner": null,
    "state": null
   },
   "omm": {
    "OBJECT_NAME": "RESURS-DK 1",
    "OBJECT_ID": "2006-021A",
    "EPOCH": "2026-06-27T19:26:28.816800",
    "MEAN_MOTION": 15.13259446,
    "ECCENTRICITY": 0.00067322,
    "INCLINATION": 69.9338,
    "RA_OF_ASC_NODE": 312.055,
    "ARG_OF_PERICENTER": 286.8936,
    "MEAN_ANOMALY": 73.1492,
    "EPHEMERIS_TYPE": 0,
    "CLASSIFICATION_TYPE": "U",
    "NORAD_CAT_ID": 29228,
    "ELEMENT_SET_NO": 999,
    "REV_AT_EPOCH": 10418,
    "BSTAR": 0.00013443828,
    "MEAN_MOTION_DOT": 0.00002289,
    "MEAN_MOTION_DDOT": 0
   }
  },
  {
   "norad": 59371,
   "name": "RESURS-P 4",
   "intl": "2024-061A",
   "group": "resource",
   "gcat": {
    "class": "C",
    "category": "IMG",
    "owner": "TSSKBP?",
    "state": "RU"
   },
   "omm": {
    "OBJECT_NAME": "RESURS-P 4",
    "OBJECT_ID": "2024-061A",
    "EPOCH": "2026-06-27T23:22:29.669664",
    "MEAN_MOTION": 15.32190156,
    "ECCENTRICITY": 0.00028294,
    "INCLINATION": 97.2753,
    "RA_OF_ASC_NODE": 126.685,
    "ARG_OF_PERICENTER": 113.9969,
    "MEAN_ANOMALY": 246.1569,
    "EPHEMERIS_TYPE": 0,
    "CLASSIFICATION_TYPE": "U",
    "NORAD_CAT_ID": 59371,
    "ELEMENT_SET_NO": 999,
    "REV_AT_EPOCH": 12541,
    "BSTAR": 0.00010072024,
    "MEAN_MOTION_DOT": 0.00003054,
    "MEAN_MOTION_DDOT": 0
   }
  },
  {
   "norad": 44233,
   "name": "RISAT-2B",
   "intl": "2019-028A",
   "group": "sar",
   "gcat": {
    "class": "C",
    "category": "IMG-R",
    "owner": "ISRO",
    "state": "IN"
   },
   "omm": {
    "OBJECT_NAME": "RISAT-2B",
    "OBJECT_ID": "2019-028A",
    "EPOCH": "2026-06-27T18:58:26.073120",
    "MEAN_MOTION": 15.01718883,
    "ECCENTRICITY": 0.00038643,
    "INCLINATION": 36.9978,
    "RA_OF_ASC_NODE": 291.2017,
    "ARG_OF_PERICENTER": 131.8032,
    "MEAN_ANOMALY": 228.3042,
    "EPHEMERIS_TYPE": 0,
    "CLASSIFICATION_TYPE": "U",
    "NORAD_CAT_ID": 44233,
    "ELEMENT_SET_NO": 999,
    "REV_AT_EPOCH": 38942,
    "BSTAR": 0.00025344343,
    "MEAN_MOTION_DOT": 0.00003281,
    "MEAN_MOTION_DDOT": 0
   }
  },
  {
   "norad": 44857,
   "name": "RISAT-2BR1",
   "intl": "2019-089F",
   "group": "sar",
   "gcat": {
    "class": "C",
    "category": "IMG-R",
    "owner": "ISRO",
    "state": "IN"
   },
   "omm": {
    "OBJECT_NAME": "RISAT-2BR1",
    "OBJECT_ID": "2019-089F",
    "EPOCH": "2026-06-27T22:12:42.984000",
    "MEAN_MOTION": 15.01713298,
    "ECCENTRICITY": 0.00131923,
    "INCLINATION": 36.9612,
    "RA_OF_ASC_NODE": 47.8926,
    "ARG_OF_PERICENTER": 262.1658,
    "MEAN_ANOMALY": 97.7586,
    "EPHEMERIS_TYPE": 0,
    "CLASSIFICATION_TYPE": "U",
    "NORAD_CAT_ID": 44857,
    "ELEMENT_SET_NO": 999,
    "REV_AT_EPOCH": 35881,
    "BSTAR": 0.00023396475,
    "MEAN_MOTION_DOT": 0.00003027,
    "MEAN_MOTION_DDOT": 0
   }
  },
  {
   "norad": 46905,
   "name": "RISAT-2BR2",
   "intl": "2020-081A",
   "group": "sar",
   "gcat": {
    "class": "C",
    "category": "IMG-R",
    "owner": "ISRO",
    "state": "IN"
   },
   "omm": {
    "OBJECT_NAME": "RISAT-2BR2",
    "OBJECT_ID": "2020-081A",
    "EPOCH": "2026-06-27T23:41:30.305184",
    "MEAN_MOTION": 15.01666592,
    "ECCENTRICITY": 0.00122741,
    "INCLINATION": 36.8968,
    "RA_OF_ASC_NODE": 160.1386,
    "ARG_OF_PERICENTER": 250.8465,
    "MEAN_ANOMALY": 109.0947,
    "EPHEMERIS_TYPE": 0,
    "CLASSIFICATION_TYPE": "U",
    "NORAD_CAT_ID": 46905,
    "ELEMENT_SET_NO": 999,
    "REV_AT_EPOCH": 30909,
    "BSTAR": 0.00018455775,
    "MEAN_MOTION_DOT": 0.00002369,
    "MEAN_MOTION_DDOT": 0
   }
  },
  {
   "norad": 43641,
   "name": "SAOCOM 1A",
   "intl": "2018-076A",
   "group": "sar",
   "gcat": {
    "class": "C",
    "category": "IMG-R",
    "owner": "CONAE",
    "state": "AR"
   },
   "omm": {
    "OBJECT_NAME": "SAOCOM 1A",
    "OBJECT_ID": "2018-076A",
    "EPOCH": "2026-06-27T22:30:21.053952",
    "MEAN_MOTION": 14.82156502,
    "ECCENTRICITY": 0.00015596,
    "INCLINATION": 97.8883,
    "RA_OF_ASC_NODE": 5.5301,
    "ARG_OF_PERICENTER": 81.2406,
    "MEAN_ANOMALY": 278.8984,
    "EPHEMERIS_TYPE": 0,
    "CLASSIFICATION_TYPE": "U",
    "NORAD_CAT_ID": 43641,
    "ELEMENT_SET_NO": 999,
    "REV_AT_EPOCH": 41769,
    "BSTAR": 0.000096054143,
    "MEAN_MOTION_DOT": 0.00000713,
    "MEAN_MOTION_DDOT": 0
   }
  },
  {
   "norad": 46265,
   "name": "SAOCOM 1B",
   "intl": "2020-059A",
   "group": "sar",
   "gcat": {
    "class": "C",
    "category": "IMG-R",
    "owner": "CONAE",
    "state": "AR"
   },
   "omm": {
    "OBJECT_NAME": "SAOCOM 1B",
    "OBJECT_ID": "2020-059A",
    "EPOCH": "2026-06-27T23:15:14.808960",
    "MEAN_MOTION": 14.82148391,
    "ECCENTRICITY": 0.00016222,
    "INCLINATION": 97.8887,
    "RA_OF_ASC_NODE": 4.6566,
    "ARG_OF_PERICENTER": 81.1503,
    "MEAN_ANOMALY": 278.9894,
    "EPHEMERIS_TYPE": 0,
    "CLASSIFICATION_TYPE": "U",
    "NORAD_CAT_ID": 46265,
    "ELEMENT_SET_NO": 999,
    "REV_AT_EPOCH": 31508,
    "BSTAR": 0.000092425338,
    "MEAN_MOTION_DOT": 0.00000683,
    "MEAN_MOTION_DDOT": 0
   }
  },
  {
   "norad": 31797,
   "name": "SAR-LUPE 2",
   "intl": "2007-030A",
   "group": "sar",
   "gcat": {
    "class": "D",
    "category": "IMG-R",
    "owner": "BWB",
    "state": "D"
   },
   "omm": {
    "OBJECT_NAME": "SAR-LUPE 2",
    "OBJECT_ID": "2007-030A",
    "EPOCH": "2026-06-27T22:16:26.916384",
    "MEAN_MOTION": 15.51649048,
    "ECCENTRICITY": 0.00026436,
    "INCLINATION": 98.1057,
    "RA_OF_ASC_NODE": 284.7042,
    "ARG_OF_PERICENTER": 178.6304,
    "MEAN_ANOMALY": 181.4954,
    "EPHEMERIS_TYPE": 0,
    "CLASSIFICATION_TYPE": "U",
    "NORAD_CAT_ID": 31797,
    "ELEMENT_SET_NO": 999,
    "REV_AT_EPOCH": 5860,
    "BSTAR": 0.00023807702,
    "MEAN_MOTION_DOT": 0.0001404,
    "MEAN_MOTION_DDOT": 0
   }
  },
  {
   "norad": 39086,
   "name": "SARAL",
   "intl": "2013-009A",
   "group": "resource",
   "gcat": {
    "class": "C",
    "category": "SCI",
    "owner": "ISRO/CNES",
    "state": "IN"
   },
   "omm": {
    "OBJECT_NAME": "SARAL",
    "OBJECT_ID": "2013-009A",
    "EPOCH": "2026-06-27T22:25:40.032768",
    "MEAN_MOTION": 14.32858429,
    "ECCENTRICITY": 0.00007553,
    "INCLINATION": 98.5557,
    "RA_OF_ASC_NODE": 5.3655,
    "ARG_OF_PERICENTER": 223.9447,
    "MEAN_ANOMALY": 136.1677,
    "EPHEMERIS_TYPE": 0,
    "CLASSIFICATION_TYPE": "U",
    "NORAD_CAT_ID": 39086,
    "ELEMENT_SET_NO": 999,
    "REV_AT_EPOCH": 69714,
    "BSTAR": 0.000045536698,
    "MEAN_MOTION_DOT": 8.1e-7,
    "MEAN_MOTION_DDOT": 0
   }
  },
  {
   "norad": 43831,
   "name": "SAUDISAT 5A",
   "intl": "2018-102A",
   "group": "resource",
   "gcat": {
    "class": "C",
    "category": "TECH",
    "owner": "KACST",
    "state": "SA"
   },
   "omm": {
    "OBJECT_NAME": "SAUDISAT 5A",
    "OBJECT_ID": "2018-102A",
    "EPOCH": "2026-06-27T23:16:08.218848",
    "MEAN_MOTION": 15.28156382,
    "ECCENTRICITY": 0.00112982,
    "INCLINATION": 97.3068,
    "RA_OF_ASC_NODE": 240.3428,
    "ARG_OF_PERICENTER": 96.5064,
    "MEAN_ANOMALY": 263.7462,
    "EPHEMERIS_TYPE": 0,
    "CLASSIFICATION_TYPE": "U",
    "NORAD_CAT_ID": 43831,
    "ELEMENT_SET_NO": 999,
    "REV_AT_EPOCH": 41732,
    "BSTAR": 0.00021075738,
    "MEAN_MOTION_DOT": 0.00005721,
    "MEAN_MOTION_DDOT": 0
   }
  }
 ]
}
